sat02986
1 02986U 64026E   20046.74710254  .00000071  00000-0  37973-4 0  9996
2 02986  90.5291  61.5391 0047583   4.9871 355.1775 14.05442689849438
